STARLINK-36519          
1 67449U 26008E   26034.25002315 -.00710574  00000+0 -49661-2 0  9992
2 67449  42.9998  42.4939 0001725 268.9152  81.1815 15.75305091  4264
STARLINK-36525          
1 67450U 26008F   26034.25002315 -.02094344  00000+0 -20437-1 0  9995
2 67450  42.9995  42.5294 0001256 266.4382  69.1543 15.68637920  4260
STARLINK-36511          
1 67451U 26008G   26034.25002315 -.02057243  00000+0 -21976-1 0  9992
2 67451  42.9994  42.5582 0001125 261.4773  62.6522 15.66385096  4261
STARLINK-36524          
1 67452U 26008H   26034.25002315 -.02090419  00000+0 -19716-1 0  9994
2 67452  42.9995  42.5100 0001245 268.3504  74.9719 15.69445118  4269
STARLINK-36518          
1 67453U 26008J   26034.25002315 -.02095093  00000+0 -17589-1 0  9994
2 67453  42.9991  42.1172 0001027 279.5977 217.7092 15.72193409  4287
STARLINK-36517          
1 67454U 26008K   26034.25002315 -.02087315  00000+0 -23771-1 0  9993
2 67454  42.9997  42.5768 0001225 267.1817  49.0845 15.64860399  4287
STARLINK-36516          
1 67455U 26008L   26034.25002315 -.02088445  00000+0 -21422-1 0  9990
2 67455  42.9995  42.5180 0001267 266.7822  73.5099 15.67424723  4262
STARLINK-36493          
1 67456U 26008M   26034.25002315 -.02096414  00000+0 -20761-1 0  9991
2 67456  42.9998  42.5150 0001236 270.0854  71.3225 15.68287516  4267
STARLINK-36529          
1 67457U 26008N   26034.31337617 -.00715322  00000+0 -53429-2 0  9997
2 67457  42.9997  42.0805 0001674 236.5227 123.5482 15.73800755  4285
STARLINK-36528          
1 67458U 26008P   26034.31247992  .00212617  00000+0  13479-2 0  9992
2 67458  42.9997  42.0735 0001150 269.1414  90.9324 15.75118625  4289
STARLINK-36546          
1 67459U 26008Q   26034.31235425 -.00886436  00000+0 -67727-2 0  9994
2 67459  42.9997  42.0719 0001478 255.0683 105.0022 15.73758446  4289
STARLINK-36523          
1 67460U 26008R   26034.24844325 -.00420377  00000+0 -29247-2 0  9996
2 67460  42.9997  42.4526 0002708 289.2571  70.8005 15.74615980  4278
