CCSDS_OMM_VERS = 2.0
CREATION_DATE  = 
ORIGINATOR     = 

OBJECT_NAME    = STARLINK-36519
OBJECT_ID      = 2026-008E
CENTER_NAME    = EARTH
REF_FRAME      = TEME
TIME_SYSTEM    = UTC
MEAN_ELEMENT_THEORY = SGP/SGP4

EPOCH          = 2026-02-03T06:00:02.000160
MEAN_MOTION    = 15.75305091
ECCENTRICITY   = .00017256
INCLINATION    = 42.9998
RA_OF_ASC_NODE = 42.4939
ARG_OF_PERICENTER = 268.9152
MEAN_ANOMALY   = 81.1815

EPHEMERIS_TYPE = 0
CLASSIFICATION_TYPE = U
NORAD_CAT_ID   = 67449
ELEMENT_SET_NO = 999
REV_AT_EPOCH   = 426
BSTAR          = -.49661035E-2
MEAN_MOTION_DOT = -.710574E-2
MEAN_MOTION_DDOT = 0

CCSDS_OMM_VERS = 2.0
CREATION_DATE  = 
ORIGINATOR     = 

OBJECT_NAME    = STARLINK-36525
OBJECT_ID      = 2026-008F
CENTER_NAME    = EARTH
REF_FRAME      = TEME
TIME_SYSTEM    = UTC
MEAN_ELEMENT_THEORY = SGP/SGP4

EPOCH          = 2026-02-03T06:00:02.000160
MEAN_MOTION    = 15.68637920
ECCENTRICITY   = .00012563
INCLINATION    = 42.9995
RA_OF_ASC_NODE = 42.5294
ARG_OF_PERICENTER = 266.4382
MEAN_ANOMALY   = 69.1543

EPHEMERIS_TYPE = 0
CLASSIFICATION_TYPE = U
NORAD_CAT_ID   = 67450
ELEMENT_SET_NO = 999
REV_AT_EPOCH   = 426
BSTAR          = -.20437282E-1
MEAN_MOTION_DOT = -.2094344E-1
MEAN_MOTION_DDOT = 0

CCSDS_OMM_VERS = 2.0
CREATION_DATE  = 
ORIGINATOR     = 

OBJECT_NAME    = STARLINK-36511
OBJECT_ID      = 2026-008G
CENTER_NAME    = EARTH
REF_FRAME      = TEME
TIME_SYSTEM    = UTC
MEAN_ELEMENT_THEORY = SGP/SGP4

EPOCH          = 2026-02-03T06:00:02.000160
MEAN_MOTION    = 15.66385096
ECCENTRICITY   = .00011254
INCLINATION    = 42.9994
RA_OF_ASC_NODE = 42.5582
ARG_OF_PERICENTER = 261.4773
MEAN_ANOMALY   = 62.6522

EPHEMERIS_TYPE = 0
CLASSIFICATION_TYPE = U
NORAD_CAT_ID   = 67451
ELEMENT_SET_NO = 999
REV_AT_EPOCH   = 426
BSTAR          = -.21975895E-1
MEAN_MOTION_DOT = -.2057243E-1
MEAN_MOTION_DDOT = 0

CCSDS_OMM_VERS = 2.0
CREATION_DATE  = 
ORIGINATOR     = 

OBJECT_NAME    = STARLINK-36524
OBJECT_ID      = 2026-008H
CENTER_NAME    = EARTH
REF_FRAME      = TEME
TIME_SYSTEM    = UTC
MEAN_ELEMENT_THEORY = SGP/SGP4

EPOCH          = 2026-02-03T06:00:02.000160
MEAN_MOTION    = 15.69445118
ECCENTRICITY   = .00012458
INCLINATION    = 42.9995
RA_OF_ASC_NODE = 42.5100
ARG_OF_PERICENTER = 268.3504
MEAN_ANOMALY   = 74.9719

EPHEMERIS_TYPE = 0
CLASSIFICATION_TYPE = U
NORAD_CAT_ID   = 67452
ELEMENT_SET_NO = 999
REV_AT_EPOCH   = 426
BSTAR          = -.1971624E-1
MEAN_MOTION_DOT = -.2090419E-1
MEAN_MOTION_DDOT = 0

CCSDS_OMM_VERS = 2.0
CREATION_DATE  = 
ORIGINATOR     = 

OBJECT_NAME    = STARLINK-36518
OBJECT_ID      = 2026-008J
CENTER_NAME    = EARTH
REF_FRAME      = TEME
TIME_SYSTEM    = UTC
MEAN_ELEMENT_THEORY = SGP/SGP4

EPOCH          = 2026-02-03T06:00:02.000160
MEAN_MOTION    = 15.72193409
ECCENTRICITY   = .00010275
INCLINATION    = 42.9991
RA_OF_ASC_NODE = 42.1172
ARG_OF_PERICENTER = 279.5977
MEAN_ANOMALY   = 217.7092

EPHEMERIS_TYPE = 0
CLASSIFICATION_TYPE = U
NORAD_CAT_ID   = 67453
ELEMENT_SET_NO = 999
REV_AT_EPOCH   = 428
BSTAR          = -.17588849E-1
MEAN_MOTION_DOT = -.2095093E-1
MEAN_MOTION_DDOT = 0

CCSDS_OMM_VERS = 2.0
CREATION_DATE  = 
ORIGINATOR     = 

OBJECT_NAME    = STARLINK-36517
OBJECT_ID      = 2026-008K
CENTER_NAME    = EARTH
REF_FRAME      = TEME
TIME_SYSTEM    = UTC
MEAN_ELEMENT_THEORY = SGP/SGP4

EPOCH          = 2026-02-03T06:00:02.000160
MEAN_MOTION    = 15.64860399
ECCENTRICITY   = .00012257
INCLINATION    = 42.9997
RA_OF_ASC_NODE = 42.5768
ARG_OF_PERICENTER = 267.1817
MEAN_ANOMALY   = 49.0845

EPHEMERIS_TYPE = 0
CLASSIFICATION_TYPE = U
NORAD_CAT_ID   = 67454
ELEMENT_SET_NO = 999
REV_AT_EPOCH   = 428
BSTAR          = -.23770539E-1
MEAN_MOTION_DOT = -.2087315E-1
MEAN_MOTION_DDOT = 0

CCSDS_OMM_VERS = 2.0
CREATION_DATE  = 
ORIGINATOR     = 

OBJECT_NAME    = STARLINK-36516
OBJECT_ID      = 2026-008L
CENTER_NAME    = EARTH
REF_FRAME      = TEME
TIME_SYSTEM    = UTC
MEAN_ELEMENT_THEORY = SGP/SGP4

EPOCH          = 2026-02-03T06:00:02.000160
MEAN_MOTION    = 15.67424723
ECCENTRICITY   = .00012671
INCLINATION    = 42.9995
RA_OF_ASC_NODE = 42.5180
ARG_OF_PERICENTER = 266.7822
MEAN_ANOMALY   = 73.5099

EPHEMERIS_TYPE = 0
CLASSIFICATION_TYPE = U
NORAD_CAT_ID   = 67455
ELEMENT_SET_NO = 999
REV_AT_EPOCH   = 426
BSTAR          = -.21422327E-1
MEAN_MOTION_DOT = -.2088445E-1
MEAN_MOTION_DDOT = 0

CCSDS_OMM_VERS = 2.0
CREATION_DATE  = 
ORIGINATOR     = 

OBJECT_NAME    = STARLINK-36493
OBJECT_ID      = 2026-008M
CENTER_NAME    = EARTH
REF_FRAME      = TEME
TIME_SYSTEM    = UTC
MEAN_ELEMENT_THEORY = SGP/SGP4

EPOCH          = 2026-02-03T06:00:02.000160
MEAN_MOTION    = 15.68287516
ECCENTRICITY   = .00012364
INCLINATION    = 42.9998
RA_OF_ASC_NODE = 42.5150
ARG_OF_PERICENTER = 270.0854
MEAN_ANOMALY   = 71.3225

EPHEMERIS_TYPE = 0
CLASSIFICATION_TYPE = U
NORAD_CAT_ID   = 67456
ELEMENT_SET_NO = 999
REV_AT_EPOCH   = 426
BSTAR          = -.20761271E-1
MEAN_MOTION_DOT = -.2096414E-1
MEAN_MOTION_DDOT = 0

CCSDS_OMM_VERS = 2.0
CREATION_DATE  = 
ORIGINATOR     = 

OBJECT_NAME    = STARLINK-36529
OBJECT_ID      = 2026-008N
CENTER_NAME    = EARTH
REF_FRAME      = TEME
TIME_SYSTEM    = UTC
MEAN_ELEMENT_THEORY = SGP/SGP4

EPOCH          = 2026-02-03T07:31:15.701088
MEAN_MOTION    = 15.73800755
ECCENTRICITY   = .00016749
INCLINATION    = 42.9997
RA_OF_ASC_NODE = 42.0805
ARG_OF_PERICENTER = 236.5227
MEAN_ANOMALY   = 123.5482

EPHEMERIS_TYPE = 0
CLASSIFICATION_TYPE = U
NORAD_CAT_ID   = 67457
ELEMENT_SET_NO = 999
REV_AT_EPOCH   = 428
BSTAR          = -.53429301E-2
MEAN_MOTION_DOT = -.715322E-2
MEAN_MOTION_DDOT = 0

CCSDS_OMM_VERS = 2.0
CREATION_DATE  = 
ORIGINATOR     = 

OBJECT_NAME    = STARLINK-36528
OBJECT_ID      = 2026-008P
CENTER_NAME    = EARTH
REF_FRAME      = TEME
TIME_SYSTEM    = UTC
MEAN_ELEMENT_THEORY = SGP/SGP4

EPOCH          = 2026-02-03T07:29:58.265088
MEAN_MOTION    = 15.75118625
ECCENTRICITY   = .00011502
INCLINATION    = 42.9997
RA_OF_ASC_NODE = 42.0735
ARG_OF_PERICENTER = 269.1414
MEAN_ANOMALY   = 90.9324

EPHEMERIS_TYPE = 0
CLASSIFICATION_TYPE = U
NORAD_CAT_ID   = 67458
ELEMENT_SET_NO = 999
REV_AT_EPOCH   = 428
BSTAR          = .1347941E-2
MEAN_MOTION_DOT = .212617E-2
MEAN_MOTION_DDOT = 0

CCSDS_OMM_VERS = 2.0
CREATION_DATE  = 
ORIGINATOR     = 

OBJECT_NAME    = STARLINK-36546
OBJECT_ID      = 2026-008Q
CENTER_NAME    = EARTH
REF_FRAME      = TEME
TIME_SYSTEM    = UTC
MEAN_ELEMENT_THEORY = SGP/SGP4

EPOCH          = 2026-02-03T07:29:47.407200
MEAN_MOTION    = 15.73758446
ECCENTRICITY   = .00014788
INCLINATION    = 42.9997
RA_OF_ASC_NODE = 42.0719
ARG_OF_PERICENTER = 255.0683
MEAN_ANOMALY   = 105.0022

EPHEMERIS_TYPE = 0
CLASSIFICATION_TYPE = U
NORAD_CAT_ID   = 67459
ELEMENT_SET_NO = 999
REV_AT_EPOCH   = 428
BSTAR          = -.67727006E-2
MEAN_MOTION_DOT = -.886436E-2
MEAN_MOTION_DDOT = 0

CCSDS_OMM_VERS = 2.0
CREATION_DATE  = 
ORIGINATOR     = 

OBJECT_NAME    = STARLINK-36523
OBJECT_ID      = 2026-008R
CENTER_NAME    = EARTH
REF_FRAME      = TEME
TIME_SYSTEM    = UTC
MEAN_ELEMENT_THEORY = SGP/SGP4

EPOCH          = 2026-02-03T05:57:45.496800
MEAN_MOTION    = 15.74615980
ECCENTRICITY   = .0002708
INCLINATION    = 42.9997
RA_OF_ASC_NODE = 42.4526
ARG_OF_PERICENTER = 289.2571
MEAN_ANOMALY   = 70.8005

EPHEMERIS_TYPE = 0
CLASSIFICATION_TYPE = U
NORAD_CAT_ID   = 67460
ELEMENT_SET_NO = 999
REV_AT_EPOCH   = 427
BSTAR          = -.29246792E-2
MEAN_MOTION_DOT = -.420377E-2
MEAN_MOTION_DDOT = 0

